#dP2020  2 14  0  0  0.00000000      96 __u+U ITR00 FIT  IAC
## 2092 432000.00000000   900.00000000 58893 0.0000000000000
+  115   C01C02C03C04C05C06C07C08C09C10C11C12C13C14C16C18C19
+        C20C21C22C23C24C25C26C27C28C29C30C32C33C34C35C36C37
+        E01E02E03E04E05E07E08E09E11E12E13E14E15E18E19E21E24
+        E25E26E27E30E31E33E36G01G02G03G04G05G06G07G08G09G10
+        G11G12G13G14G15G16G17G18G19G20G21G22G23G24G25G27G28
+        G29G30G31G32J01J02J03J07R01R02R03R04R05R07R08R09R11
+        R12R13R14R15R16R17R18R19R20R21R22R23R26  0  0  0  0
++        13  0 13 13 13  8  9  9  8  8  8  8  8  7  8 15  8
++         8  8  8  8  8  8  8  8  7  8  8  8  8  8  8  8  8
++         4  5  5  5  5  5  5  5  5  4  5  5  5  5  4  5  5
++         5  5  5  5  5  4  5  3  4  3  3  4  3  3  3  3  3
++         3  3  4  3  4  4  3  4  4  3  3  3  3  3  4  4  3
++         4  3  3  3  9  9  8  0  6  5  5  6  6  5  5  6  6
++         5  6  5  5  6  5  5  6  6  6  5  5  8  0  0  0  0
%c M  cc GPS ccc cccc cccc cccc cccc ccccc ccccc ccccc ccccc
%c cc cc ccc ccc cccc cccc cccc cccc ccccc ccccc ccccc ccccc
%f  0.0000000  0.000000000  0.00000000000  0.000000000000000
%f  0.0000000  0.000000000  0.00000000000  0.000000000000000
%i    0    0    0    0      0      0      0      0         0
%i    0    0    0    0      0      0      0      0         0
/* INFORMATION & ANALYSIS CENTER (IAC)            RAPID DATA
/* S/V CLOCKS ARE ALIGNED TO GNSS TIME                      
/* G:C1WC2W R:C1PC2P E:C1XC5X C:C2IC6I J:C1CC2S             
/* PCV:IGS14_2091 OL/AL:FES2004  NONE     YN ORB:CoN CLK:CoN
*  2020 02 14  6  0  0.00000000
PC01 -32302.789567  27107.430535    -66.203748    198.754110
PC02   4496.966069  41886.900980   -972.153090 999999.999999
PC03 -14670.111983  39510.118940   -906.695349   -231.043248
PC04 -39635.284151  14431.305265   -257.414250   -419.442064
PC05  21966.743079  35959.169115   -938.675485   -340.600372
PC06 -21228.994368  35075.870313   9174.585414    246.435004
PC07  -7541.874747  32994.353188  25606.733657    -70.618167
PC08 -17168.594187  17898.057944 -34064.212499   -117.231607
PC09 -11830.048409  34634.641300  20845.191294    332.766593
PC10   3304.349566  38948.472178  16486.524709   -658.724773
PC11  10231.183531  11565.668578 -23176.543698   -181.175058
PC12  -9153.652941  19592.707193 -17610.260850    318.996274
PC13  -1827.839885  22978.151817 -35196.213169    265.799705
PC14  10194.941864  22666.594118  12770.707996    154.289950
PC16 -19624.016020  35584.142266  10932.611111   -781.021375
PC18   7349.030274  41515.013608    289.835027   -538.061778
PC19 -14153.277009 -14533.703051 -19133.151558    325.289089
PC20  -5012.721706 -26975.243255  -5003.500384   -708.079536
PC21  -7449.216517  23785.071377 -12552.375424    -74.049197
PC22 -15257.203890   6626.199020 -22406.471239   -848.171552
PC23  23431.135095    170.482197 -15152.560268   -891.003423
PC24  10477.582632  19304.603019  17185.313956   -926.038189
PC25  24644.916202  13020.441991   1090.331592   -515.369534
PC26  -8133.940216  13958.090536  22748.223015    570.726363
PC27  17421.677240 -19215.518763  10314.917024    278.134549
PC28  25134.310367  -9728.226496  -7221.026159    269.071310
PC29 -18362.514397  -4721.256683  20473.474472    187.481113
PC30   -854.527599 -17551.283726  21687.928585    271.684090
PC32   7306.705547 -23818.794070  12578.210772   -870.451062
PC33  14243.687563  14543.593635  19099.981527   -904.787575
PC34   1288.414589  17379.792204 -21789.275985   -469.188300
PC35 -24795.346635  10435.962440   7353.246741   -873.825869
PC36 -24276.066429 -13704.102573  -1279.472153   -830.502617
PC37   9025.842327 -13435.907389 -22717.302715   -882.169405
PE01   5973.949961 -17354.146078 -23227.430449   -794.471787
PE02  -5925.400976  17387.681510  23202.256189    112.619749
PE03 -13596.580204  25940.546377  -4340.484454   -266.092298
PE04     69.400171 -26301.153525 -13579.319765   -465.505002
PE05 -19299.150160  10354.540351 -19914.200353   -405.548425
PE07  13687.031263  11179.189877  23749.822506   -340.731739
PE08    179.999640  26197.837662  13788.064604   6220.592070
PE09 -13680.353897 -10929.972457 -23862.220399   6156.820372
PE11 -23704.310380  -7118.937820  16226.010138   1254.730707
PE12  -3998.885291 -15880.011307  24668.518152   5952.228153
PE13  23577.934151   7093.630413 -16420.865721    398.339537
PE14 -14328.470089  -5777.739443  17718.153010   -904.650536
PE15   4322.462673  15721.454000 -24689.029194    877.349441
PE18  17522.672289  11248.949997 -24951.662268  -1002.000966
PE19  14628.516929 -24938.787536   6353.663382     -1.540611
PE21  19441.507473    613.076269 -22313.732282   -582.579447
PE24 -21543.888866 -18592.297574   8185.624449   5611.066861
PE25 -19498.266665   -738.499786  22263.504156   -503.898091
PE26  28990.011964  -5706.268167   1792.013425   3531.493370
PE27  21643.400429  18404.791596  -8283.394670    282.726736
PE30  10844.733493  25373.587999  10675.216981   4144.824418
PE31 -11137.649293 -25319.217551 -10544.697475   -471.698142
PE33  17491.579439 -15138.091828  18487.311188   -470.351387
PE36 -29009.033892   5681.638879  -1459.477782    598.532736
PG01  15450.388908  13853.844598 -16969.925873   -294.404954
PG02   8649.708398 -14341.160972  21239.737621   -404.450627
PG03  13315.548453  22254.651290   5901.936697    -94.149051
PG04   7705.039191  13961.194761  21244.853424    -48.597155
PG05    266.803804 -22875.865853  13190.361420     -7.573610
PG06  20292.684712  -7626.393052  15428.867938   -207.982405
PG07  26044.124858   5961.208162   2667.599574   -214.104770
PG08  -1635.553709  20698.778022 -16389.001595    -23.698278
PG09  15802.803457   3822.142459  20951.254804   -155.186870
PG10 -14849.412513   3359.681637 -21698.507550   -244.508246
PG11   4930.039000  15742.782032 -21295.868830   -361.693207
PG12  -9961.477609 -24523.979037   2907.028434    151.456523
PG13  10441.575498 -21522.684508 -11576.297159    -12.961540
PG14 -18507.969222  18845.961595  -1182.536881    -32.570319
PG15  -1664.328666 -20699.549335 -16650.041845   -251.698661
PG16  -2464.048743  22545.426375  13232.924925   -124.291354
PG17  20543.274203 -12511.716548 -10777.940487    215.736059
PG18   6855.371612  15456.282281 -21008.992463      2.484311
PG19  20161.634810 -16838.829813  -4234.365028   -198.934901
PG20 -18876.565387  -7340.559322 -17372.500157    527.867447
PG21 -26188.477359  -3333.703243   1832.641052    -41.345413
PG22  10276.615521  24427.201337  -2320.730553   -784.521376
PG23   9791.477934  12818.685860  21413.134202   -136.458721
PG24 -13882.549598 -14355.914696 -17873.606316     -9.019837
PG25 -16288.600878 -16354.705442  13148.069831    -13.204338
PG27 -11074.667417  22687.132738  -7804.508744   -210.574848
PG28  13939.109498  -4144.903396 -21636.646402    739.334219
PG29 -14316.449113  -5524.250530  21647.492961    -32.593522
PG30  25174.204022  -1831.107444  -8558.514574   -152.742195
PG31 -18730.041541   8825.989758  16854.879745    -23.096051
PG32 -20027.186251  13624.319723 -10666.247224    211.841901
PJ01 -19259.100524  31189.107402 -16247.838570   -325.504121
PJ02 -26275.099204  20377.372816  30754.466638     -1.308456
PJ03 -34514.183049  24284.478722   3382.166205     -0.497271
PJ07      0.000000      0.000000      0.000000 999999.999999
PR01  -7224.111037  22586.967620  -9416.441666     57.063207
PR02   2310.596247  22654.311192  11473.033328    411.817306
PR03   9559.694053   8209.621071  22208.338084      9.980511
PR04  11069.966059 -10777.457249  20321.485300     38.696977
PR05   6495.031459 -23701.084223   6887.572581     44.981563
PR07  -9652.724906  -7722.546173 -22285.785439    -33.176474
PR08 -11169.126940  10731.547946 -20212.053673    -50.495303
PR09 -16122.964598 -17722.963370  -8652.533852    116.711796
PR11 -15732.118422    170.885200  20074.939670    -13.414187
PR12  -1750.367479  12054.864922  22429.504992    105.564136
PR13  14136.434788  17660.181588  11762.181647    -34.772742
PR14  21223.285920  12961.801485  -5685.363659     48.118708
PR15  16193.848057    733.201598 -19675.610094    105.916788
PR16   1090.449784 -12557.886578 -22222.763725     -1.482219
PR17  18632.009636   1002.696721 -17359.784767    300.841774
PR18  23957.748154  -8571.153096  -2175.312543     25.050529
PR19  16976.497952 -13019.520941  13898.624588    -78.992058
PR20  -1989.246601 -10339.012621  23249.856747   -404.064689
PR21 -19206.431709   -450.680962  16799.908305   -104.798489
PR22 -23535.016274   9640.907739   -640.909131    -13.912593
PR23 -11268.890870  13436.102115 -18522.682788    286.277724
PR26   2113.194450 -11750.105896  22554.278674   -407.021785
EOF
